start=new Date('2021-09-03T00:00:00.000Z').valueOf();
sats=[{"LAUNCH_DATE":"2020-03-18","OBJECT_ID":"2020-019BD","GP_ID":"183987525","RCS_SIZE":"LARGE","REV_AT_EPOCH":"8135","ECCENTRICITY":"0.00009020","ELEMENT_SET_NO":"999","CENTER_NAME":"EARTH","DECAY_DATE":null,"EPHEMERIS_TYPE":"0","EPOCH":"2021-09-02T18:14:57.334848","MEAN_ANOMALY":"230.8493","PERIAPSIS":"546.580","APOAPSIS":"547.829","SEMIMAJOR_AXIS":"6925.339","CLASSIFICATION_TYPE":"U","TIME_SYSTEM":"UTC","ARG_OF_PERICENTER":"129.2576","FILE":"3107724","BSTAR":"0.00005937800000","TLE_LINE2":"2 45411  53.0553 338.9528 0000902 129.2576 230.8493 15.06403016 81351","INCLINATION":"53.0553","OBJECT_TYPE":"PAYLOAD","REF_FRAME":"TEME","MEAN_MOTION_DDOT":"0.0000000000000","SITE":"AFETR","TLE_LINE1":"1 45411U 20019BD  21245.76038582  .00000603  00000-0  59378-4 0  9995","NORAD_CAT_ID":"45411","MEAN_ELEMENT_THEORY":"SGP4","MEAN_MOTION":"15.06403016","PERIOD":"95.592","MEAN_MOTION_DOT":"0.00000603","COUNTRY_CODE":"US","OBJECT_NAME":"STARLINK-1293","RA_OF_ASC_NODE":"338.9528"},{"SITE":"AFETR","TLE_LINE1":"1 45412U 20019BE  21245.52816578  .00001338  00000-0  10871-3 0  9999","NORAD_CAT_ID":"45412","MEAN_ELEMENT_THEORY":"SGP4","FILE":"3107538","ARG_OF_PERICENTER":"128.8600","BSTAR":"0.00010871000000","OBJECT_TYPE":"PAYLOAD","TLE_LINE2":"2 45412  53.0566 339.9975 0001067 128.8600 231.2484 15.06400737 81294","INCLINATION":"53.0566","REF_FRAME":"TEME","MEAN_MOTION_DDOT":"0.0000000000000","COUNTRY_CODE":"US","OBJECT_NAME":"STARLINK-1296","RA_OF_ASC_NODE":"339.9975","PERIOD":"95.592","MEAN_MOTION":"15.06400737","MEAN_MOTION_DOT":"0.00001338","LAUNCH_DATE":"2020-03-18","RCS_SIZE":"LARGE","GP_ID":"183959056","REV_AT_EPOCH":"8129","OBJECT_ID":"2020-019BE","ECCENTRICITY":"0.00010670","PERIAPSIS":"546.472","CLASSIFICATION_TYPE":"U","APOAPSIS":"547.950","SEMIMAJOR_AXIS":"6925.346","TIME_SYSTEM":"UTC","ELEMENT_SET_NO":"999","CENTER_NAME":"EARTH","EPHEMERIS_TYPE":"0","DECAY_DATE":null,"EPOCH":"2021-09-02T12:40:33.523392","MEAN_ANOMALY":"231.2484"},{"LAUNCH_DATE":"2020-03-18","RCS_SIZE":"LARGE","GP_ID":"183986023","REV_AT_EPOCH":"8141","OBJECT_ID":"2020-019BF","ECCENTRICITY":"0.00010430","ELEMENT_SET_NO":"999","CENTER_NAME":"EARTH","EPHEMERIS_TYPE":"0","DECAY_DATE":null,"MEAN_ANOMALY":"235.3904","EPOCH":"2021-09-02T16:34:08.041440","APOAPSIS":"547.966","PERIAPSIS":"546.522","SEMIMAJOR_AXIS":"6925.379","CLASSIFICATION_TYPE":"U","TIME_SYSTEM":"UTC","FILE":"3107724","ARG_OF_PERICENTER":"124.7183","BSTAR":"0.00008989100000","TLE_LINE2":"2 45413  53.0569 339.2730 0001043 124.7183 235.3904 15.06390043 81419","INCLINATION":"53.0569","OBJECT_TYPE":"PAYLOAD","REF_FRAME":"TEME","MEAN_MOTION_DDOT":"0.0000000000000","SITE":"AFETR","TLE_LINE1":"1 45413U 20019BF  21245.69037085  .00001058  00000-0  89891-4 0  9994","NORAD_CAT_ID":"45413","MEAN_ELEMENT_THEORY":"SGP4","MEAN_MOTION":"15.06390043","PERIOD":"95.593","MEAN_MOTION_DOT":"0.00001058","COUNTRY_CODE":"US","OBJECT_NAME":"STARLINK-1298","RA_OF_ASC_NODE":"339.2730"},{"MEAN_ELEMENT_THEORY":"SGP4","NORAD_CAT_ID":"45414","TLE_LINE1":"1 45414U 20019BG  21245.54292360  .00002994  00000-0  21983-3 0  9995","SITE":"AFETR","MEAN_MOTION_DDOT":"0.0000000000000","REF_FRAME":"TEME","TLE_LINE2":"2 45414  53.0568 339.9352 0001390 120.4196 239.6930 15.06399294 81286","OBJECT_TYPE":"PAYLOAD","INCLINATION":"53.0568","BSTAR":"0.00021983000000","FILE":"3107538","ARG_OF_PERICENTER":"120.4196","RA_OF_ASC_NODE":"339.9352","OBJECT_NAME":"STARLINK-1309","COUNTRY_CODE":"US","MEAN_MOTION_DOT":"0.00002994","MEAN_MOTION":"15.06399294","PERIOD":"95.592","ECCENTRICITY":"0.00013900","OBJECT_ID":"2020-019BG","GP_ID":"183960058","RCS_SIZE":"LARGE","REV_AT_EPOCH":"8128","LAUNCH_DATE":"2020-03-18","TIME_SYSTEM":"UTC","APOAPSIS":"548.178","PERIAPSIS":"546.253","SEMIMAJOR_AXIS":"6925.351","CLASSIFICATION_TYPE":"U","MEAN_ANOMALY":"239.6930","EPOCH":"2021-09-02T13:01:48.599040","EPHEMERIS_TYPE":"0","DECAY_DATE":null,"CENTER_NAME":"EARTH","ELEMENT_SET_NO":"999"},{"CENTER_NAME":"EARTH","ELEMENT_SET_NO":"999","MEAN_ANOMALY":"233.1269","EPOCH":"2021-09-02T15:14:30.128352","EPHEMERIS_TYPE":"0","DECAY_DATE":null,"TIME_SYSTEM":"UTC","PERIAPSIS":"546.320","APOAPSIS":"548.056","SEMIMAJOR_AXIS":"6925.323","CLASSIFICATION_TYPE":"U","LAUNCH_DATE":"2020-03-18","ECCENTRICITY":"0.00012530","GP_ID":"183987025","RCS_SIZE":"LARGE","REV_AT_EPOCH":"8133","OBJECT_ID":"2020-019BH","MEAN_MOTION_DOT":"0.00004588","PERIOD":"95.592","MEAN_MOTION":"15.06408367","OBJECT_NAME":"STARLINK-1316","COUNTRY_CODE":"US","RA_OF_ASC_NODE":"339.5259","TLE_LINE2":"2 45415  53.0533 339.5259 0001253 126.9835 233.1269 15.06408367 81332","INCLINATION":"53.0533","OBJECT_TYPE":"PAYLOAD","ARG_OF_PERICENTER":"126.9835","FILE":"3107724","BSTAR":"0.00032662000000","REF_FRAME":"TEME","MEAN_MOTION_DDOT":"0.0000000000000","SITE":"AFETR","MEAN_ELEMENT_THEORY":"SGP4","NORAD_CAT_ID":"45415","TLE_LINE1":"1 45415U 20019BH  21245.63507093  .00004588  00000-0  32662-3 0  9995"},{"PERIAPSIS":"546.402","APOAPSIS":"548.019","SEMIMAJOR_AXIS":"6925.346","CLASSIFICATION_TYPE":"U","TIME_SYSTEM":"UTC","MEAN_ANOMALY":"240.2917","EPOCH":"2021-09-02T16:02:16.267776","EPHEMERIS_TYPE":"0","DECAY_DATE":null,"CENTER_NAME":"EARTH","ELEMENT_SET_NO":"999","RCS_SIZE":"LARGE","GP_ID":"183986274","OBJECT_ID":"2020-019BJ","REV_AT_EPOCH":"8132","ECCENTRICITY":"0.00011680","LAUNCH_DATE":"2020-03-18","RA_OF_ASC_NODE":"339.3708","COUNTRY_CODE":"US","OBJECT_NAME":"STARLINK-1318","MEAN_MOTION_DOT":"0.00003176","PERIOD":"95.592","MEAN_MOTION":"15.06400969","MEAN_ELEMENT_THEORY":"SGP4","TLE_LINE1":"1 45416U 20019BJ  21245.66824384  .00003176  00000-0  23201-3 0  9995","NORAD_CAT_ID":"45416","SITE":"AFETR","REF_FRAME":"TEME","MEAN_MOTION_DDOT":"0.0000000000000","TLE_LINE2":"2 45416  53.0565 339.3708 0001168 119.8188 240.2917 15.06400969 81320","OBJECT_TYPE":"PAYLOAD","INCLINATION":"53.0565","FILE":"3107724","ARG_OF_PERICENTER":"119.8188","BSTAR":"0.00023201000000"},{"COUNTRY_CODE":"US","OBJECT_NAME":"STARLINK-1286","RA_OF_ASC_NODE":"9.3511","PERIOD":"95.592","MEAN_MOTION":"15.06400110","MEAN_MOTION_DOT":"0.00001063","SITE":"AFETR","TLE_LINE1":"1 45417U 20019BK  21245.67285420  .00001063  00000-0  90268-4 0  9990","NORAD_CAT_ID":"45417","MEAN_ELEMENT_THEORY":"SGP4","BSTAR":"0.00009026800000","FILE":"3107724","ARG_OF_PERICENTER":"114.5653","TLE_LINE2":"2 45417  53.0568   9.3511 0001020 114.5653 245.5442 15.06400110 81178","OBJECT_TYPE":"PAYLOAD","INCLINATION":"53.0568","MEAN_MOTION_DDOT":"0.0000000000000","REF_FRAME":"TEME","PERIAPSIS":"546.507","SEMIMAJOR_AXIS":"6925.348","APOAPSIS":"547.920","CLASSIFICATION_TYPE":"U","TIME_SYSTEM":"UTC","ELEMENT_SET_NO":"999","CENTER_NAME":"EARTH","EPHEMERIS_TYPE":"0","DECAY_DATE":null,"MEAN_ANOMALY":"245.5442","EPOCH":"2021-09-02T16:08:54.602880","LAUNCH_DATE":"2020-03-18","RCS_SIZE":"LARGE","GP_ID":"183986524","OBJECT_ID":"2020-019BK","REV_AT_EPOCH":"8117","ECCENTRICITY":"0.00010200"},{"LAUNCH_DATE":"2020-03-18","REV_AT_EPOCH":"8069","GP_ID":"183986775","RCS_SIZE":"LARGE","OBJECT_ID":"2020-019BL","ECCENTRICITY":"0.00015690","ELEMENT_SET_NO":"999","CENTER_NAME":"EARTH","DECAY_DATE":null,"EPHEMERIS_TYPE":"0","EPOCH":"2021-09-02T18:32:21.461568","MEAN_ANOMALY":"261.9305","APOAPSIS":"565.364","PERIAPSIS":"563.186","CLASSIFICATION_TYPE":"U","SEMIMAJOR_AXIS":"6942.410","TIME_SYSTEM":"UTC","BSTAR":"0.00025837000000","FILE":"3107724","ARG_OF_PERICENTER":"98.1859","TLE_LINE2":"2 45418  53.0027  24.6202 0001569  98.1859 261.9305 15.00850360 80695","INCLINATION":"53.0027","OBJECT_TYPE":"PAYLOAD","REF_FRAME":"TEME","MEAN_MOTION_DDOT":"0.0000000000000","SITE":"AFETR","TLE_LINE1":"1 45418U 20019BL  21245.77247062  .00003054  00000-0  25837-3 0  9993","NORAD_CAT_ID":"45418","MEAN_ELEMENT_THEORY":"SGP4","MEAN_MOTION":"15.00850360","PERIOD":"95.946","MEAN_MOTION_DOT":"0.00003054","COUNTRY_CODE":"US","OBJECT_NAME":"STARLINK-1299","RA_OF_ASC_NODE":"24.6202"},{"ELEMENT_SET_NO":"999","CENTER_NAME":"EARTH","DECAY_DATE":null,"EPHEMERIS_TYPE":"0","MEAN_ANOMALY":"245.6360","EPOCH":"2021-09-02T19:14:40.465536","TIME_SYSTEM":"UTC","PERIAPSIS":"546.233","SEMIMAJOR_AXIS":"6925.340","APOAPSIS":"548.177","CLASSIFICATION_TYPE":"U","LAUNCH_DATE":"2020-03-18","ECCENTRICITY":"0.00014030","GP_ID":"183987526","OBJECT_ID":"2020-019BM","RCS_SIZE":"LARGE","REV_AT_EPOCH":"8094","PERIOD":"95.592","MEAN_MOTION":"15.06402826","MEAN_MOTION_DOT":"0.00003497","OBJECT_NAME":"STARLINK-1308","COUNTRY_CODE":"US","RA_OF_ASC_NODE":"8.7759","FILE":"3107724","BSTAR":"0.00025349000000","ARG_OF_PERICENTER":"114.4776","OBJECT_TYPE":"PAYLOAD","TLE_LINE2":"2 45419  53.0568   8.7759 0001403 114.4776 245.6360 15.06402826 80947","INCLINATION":"53.0568","MEAN_MOTION_DDOT":"0.0000000000000","REF_FRAME":"TEME","SITE":"AFETR","NORAD_CAT_ID":"45419","TLE_LINE1":"1 45419U 20019BM  21245.80185724  .00003497  00000-0  25349-3 0  9993","MEAN_ELEMENT_THEORY":"SGP4"},{"SEMIMAJOR_AXIS":"6925.355","PERIAPSIS":"546.522","APOAPSIS":"547.917","CLASSIFICATION_TYPE":"U","TIME_SYSTEM":"UTC","DECAY_DATE":null,"EPHEMERIS_TYPE":"0","EPOCH":"2021-09-02T16:54:01.531296","MEAN_ANOMALY":"266.9199","ELEMENT_SET_NO":"999","CENTER_NAME":"EARTH","RCS_SIZE":"LARGE","GP_ID":"183986536","REV_AT_EPOCH":"7655","OBJECT_ID":"2020-025A","ECCENTRICITY":"0.00010070","LAUNCH_DATE":"2020-04-22","RA_OF_ASC_NODE":"309.2012","COUNTRY_CODE":"US","OBJECT_NAME":"STARLINK-1329","MEAN_MOTION":"15.06398046","PERIOD":"95.592","MEAN_MOTION_DOT":"0.00003593","TLE_LINE1":"1 45531U 20025A   21245.70418439  .00003593  00000-0  25998-3 0  9993","NORAD_CAT_ID":"45531","MEAN_ELEMENT_THEORY":"SGP4","SITE":"AFETR","MEAN_MOTION_DDOT":"0.0000000000000","REF_FRAME":"TEME","FILE":"3107724","ARG_OF_PERICENTER":"93.1905","BSTAR":"0.00025998000000","TLE_LINE2":"2 45531  53.0541 309.2012 0001007  93.1905 266.9199 15.06398046 76557","INCLINATION":"53.0541","OBJECT_TYPE":"PAYLOAD"}];
